{"type": "FeatureCollection", "features": [ {"type": "Feature", "properties": {"norad_id": 66623, "name": "STARLINK-35920", "group": "last-30-days", "lat": -19.90222334004062, "lon": 42.76499485654716, "alt_km": 368.925306608935, "timestamp": "2025-12-08T15:42:48.537637+00:00", "meta": {"OBJECT_NAME": "STARLINK-35920", "OBJECT_ID": "2025-271G", "EPOCH": "2025-12-08T06:00:02.999808", "MEAN_MOTION": 15.69408752, "ECCENTRICITY": 0.00010328, "INCLINATION": 53.159, "RA_OF_ASC_NODE": 209.007, "ARG_OF_PERICENTER": 76.3573, "MEAN_ANOMALY": 2.209, "EPHEMERIS_TYPE": 0, "CLASSIFICATION_TYPE": "U", "NORAD_CAT_ID": 66623, "ELEMENT_SET_NO": 999, "REV_AT_EPOCH": 352, "BSTAR": -0.018643187, "MEAN_MOTION_DOT": -0.01970691, "MEAN_MOTION_DDOT": 0}, "tle": {"line1": "1 66623U 25271G   25342.25003472 -.01970691  00000+0 -18643-1 0  9996", "line2": "2 66623  53.1590 209.0070 0001032  76.3573   2.2090 15.69408752  3523"}}, "geometry": {"type": "Point", "coordinates": [42.76499485654716, -19.90222334004062]}}, {"type": "Feature", "properties": {"norad_id": 66624, "name": "STARLINK-35927", "group": "last-30-days", "lat": -18.419455598552094, "lon": 41.47864718405272, "alt_km": 368.92905387518294, "timestamp": "2025-12-08T15:42:48.537647+00:00", "meta": {"OBJECT_NAME": "STARLINK-35927", "OBJECT_ID": "2025-271H", "EPOCH": "2025-12-08T06:00:02.999808", "MEAN_MOTION": 15.69407274, "ECCENTRICITY": 8.193e-05, "INCLINATION": 53.1592, "RA_OF_ASC_NODE": 209.0114, "ARG_OF_PERICENTER": 78.4499, "MEAN_ANOMALY": 358.1999, "EPHEMERIS_TYPE": 0, "CLASSIFICATION_TYPE": "U", "NORAD_CAT_ID": 66624, "ELEMENT_SET_NO": 999, "REV_AT_EPOCH": 352, "BSTAR": -0.018617019, "MEAN_MOTION_DOT": -0.01967985, "MEAN_MOTION_DDOT": 0}, "tle": {"line1": "1 66624U 25271H   25342.25003472 -.01967985  00000+0 -18617-1 0  9990", "line2": "2 66624  53.1592 209.0114 0000819  78.4499 358.1999 15.69407274  3526"}}, "geometry": {"type": "Point", "coordinates": [41.47864718405272, -18.419455598552094]}}, {"type": "Feature", "properties": {"norad_id": 66625, "name": "STARLINK-35929", "group": "last-30-days", "lat": -21.372067472761735, "lon": 44.07264801071106, "alt_km": 369.08066892651914, "timestamp": "2025-12-08T15:42:48.537657+00:00", "meta": {"OBJECT_NAME": "STARLINK-35929", "OBJECT_ID": "2025-271J", "EPOCH": "2025-12-08T06:00:02.999808", "MEAN_MOTION": 15.69411149, "ECCENTRICITY": 9.381e-05, "INCLINATION": 53.1592, "RA_OF_ASC_NODE": 209.0029, "ARG_OF_PERICENTER": 95.8423, "MEAN_ANOMALY": 344.6394, "EPHEMERIS_TYPE": 0, "CLASSIFICATION_TYPE": "U", "NORAD_CAT_ID": 66625, "ELEMENT_SET_NO": 999, "REV_AT_EPOCH": 352, "BSTAR": -0.018669365, "MEAN_MOTION_DOT": -0.01973235, "MEAN_MOTION_DDOT": 0}, "tle": {"line1": "1 66625U 25271J   25342.25003472 -.01973235  00000+0 -18669-1 0  9993", "line2": "2 66625  53.1592 209.0029 0000938  95.8423 344.6394 15.69411149  3529"}}, "geometry": {"type": "Point", "coordinates": [44.07264801071106, -21.372067472761735]}}, {"type": "Feature", "properties": {"norad_id": 66626, "name": "STARLINK-35902", "group": "last-30-days", "lat": -22.830326528495377, "lon": 45.40539832396003, "alt_km": 369.27599997213383, "timestamp": "2025-12-08T15:42:48.537668+00:00", "meta": {"OBJECT_NAME": "STARLINK-35902", "OBJECT_ID": "2025-271K", "EPOCH": "2025-12-08T06:00:02.999808", "MEAN_MOTION": 15.6940959, "ECCENTRICITY": 8.583e-05, "INCLINATION": 53.1594, "RA_OF_ASC_NODE": 208.9985, "ARG_OF_PERICENTER": 89.096, "MEAN_ANOMALY": 353.3041, "EPHEMERIS_TYPE": 0, "CLASSIFICATION_TYPE": "U", "NORAD_CAT_ID": 66626, "ELEMENT_SET_NO": 999, "REV_AT_EPOCH": 352, "BSTAR": -0.018656965, "MEAN_MOTION_DOT": -0.01971906, "MEAN_MOTION_DDOT": 0}, "tle": {"line1": "1 66626U 25271K   25342.25003472 -.01971906  00000+0 -18657-1 0  9994", "line2": "2 66626  53.1594 208.9985 0000858  89.0960 353.3041 15.69409590  3526"}}, "geometry": {"type": "Point", "coordinates": [45.40539832396003, -22.830326528495377]}}, {"type": "Feature", "properties": {"norad_id": 66627, "name": "STARLINK-35904", "group": "last-30-days", "lat": -24.276073853938318, "lon": 46.76641876206223, "alt_km": 369.48243167325745, "timestamp": "2025-12-08T15:42:48.537680+00:00", "meta": {"OBJECT_NAME": "STARLINK-35904", "OBJECT_ID": "2025-271L", "EPOCH": "2025-12-08T06:00:02.999808", "MEAN_MOTION": 15.69404798, "ECCENTRICITY": 8.264e-05, "INCLINATION": 53.1596, "RA_OF_ASC_NODE": 208.9946, "ARG_OF_PERICENTER": 76.8597, "MEAN_ANOMALY": 7.4581, "EPHEMERIS_TYPE": 0, "CLASSIFICATION_TYPE": "U", "NORAD_CAT_ID": 66627, "ELEMENT_SET_NO": 999, "REV_AT_EPOCH": 336, "BSTAR": -0.01857816, "MEAN_MOTION_DOT": -0.01964185, "MEAN_MOTION_DDOT": 0}, "tle": {"line1": "1 66627U 25271L   25342.25003472 -.01964185  00000+0 -18578-1 0  9998", "line2": "2 66627  53.1596 208.9946 0000826  76.8597   7.4581 15.69404798  3364"}}, "geometry": {"type": "Point", "coordinates": [46.76641876206223, -24.276073853938318]}}, {"type": "Feature", "properties": {"norad_id": 66628, "name": "STARLINK-35862", "group": "last-30-days", "lat": -25.71356847586677, "lon": 48.163084631695575, "alt_km": 369.554356593213, "timestamp": "2025-12-08T15:42:48.537693+00:00", "meta": {"OBJECT_NAME": "STARLINK-35862", "OBJECT_ID": "2025-271M", "EPOCH": "2025-12-08T06:00:02.999808", "MEAN_MOTION": 15.69407696, "ECCENTRICITY": 8.811e-05, "INCLINATION": 53.1594, "RA_OF_ASC_NODE": 208.9906, "ARG_OF_PERICENTER": 87.1782, "MEAN_ANOMALY": 359.0558, "EPHEMERIS_TYPE": 0, "CLASSIFICATION_TYPE": "U", "NORAD_CAT_ID": 66628, "ELEMENT_SET_NO": 999, "REV_AT_EPOCH": 352, "BSTAR": -0.018620885, "MEAN_MOTION_DOT": -0.01968421, "MEAN_MOTION_DDOT": 0}, "tle": {"line1": "1 66628U 25271M   25342.25003472 -.01968421  00000+0 -18621-1 0  9995", "line2": "2 66628  53.1594 208.9906 0000881  87.1782 359.0558 15.69407696  3529"}}, "geometry": {"type": "Point", "coordinates": [48.163084631695575, -25.71356847586677]}}, {"type": "Feature", "properties": {"norad_id": 66629, "name": "STARLINK-35956", "group": "last-30-days", "lat": -27.13491702446308, "lon": 49.59168651397598, "alt_km": 369.64496346391843, "timestamp": "2025-12-08T15:42:48.537707+00:00", "meta": {"OBJECT_NAME": "STARLINK-35956", "OBJECT_ID": "2025-271N", "EPOCH": "2025-12-08T06:00:02.999808", "MEAN_MOTION": 15.69408785, "ECCENTRICITY": 8.66e-05, "INCLINATION": 53.1593, "RA_OF_ASC_NODE": 208.987, "ARG_OF_PERICENTER": 89.5719, "MEAN_ANOMALY": 358.5773, "EPHEMERIS_TYPE": 0, "CLASSIFICATION_TYPE": "U", "NORAD_CAT_ID": 66629, "ELEMENT_SET_NO": 999, "REV_AT_EPOCH": 352, "BSTAR": -0.018628427, "MEAN_MOTION_DOT": -0.01969193, "MEAN_MOTION_DDOT": 0}, "tle": {"line1": "1 66629U 25271N   25342.25003472 -.01969193  00000+0 -18628-1 0  9990", "line2": "2 66629  53.1593 208.9870 0000866  89.5719 358.5773 15.69408785  3521"}}, "geometry": {"type": "Point", "coordinates": [49.59168651397598, -27.13491702446308]}}, {"type": "Feature", "properties": {"norad_id": 66630, "name": "STARLINK-35949", "group": "last-30-days", "lat": -28.542918530390324, "lon": 51.05763837079278, "alt_km": 369.72708280490497, "timestamp": "2025-12-08T15:42:48.537717+00:00", "meta": {"OBJECT_NAME": "STARLINK-35949", "OBJECT_ID": "2025-271P", "EPOCH": "2025-12-08T06:00:02.999808", "MEAN_MOTION": 15.69409602, "ECCENTRICITY": 9.229e-05, "INCLINATION": 53.1591, "RA_OF_ASC_NODE": 208.9823, "ARG_OF_PERICENTER": 95.5601, "MEAN_ANOMALY": 354.5068, "EPHEMERIS_TYPE": 0, "CLASSIFICATION_TYPE": "U", "NORAD_CAT_ID": 66630, "ELEMENT_SET_NO": 999, "REV_AT_EPOCH": 352, "BSTAR": -0.018652106, "MEAN_MOTION_DOT": -0.01971502, "MEAN_MOTION_DDOT": 0}, "tle": {"line1": "1 66630U 25271P   25342.25003472 -.01971502  00000+0 -18652-1 0  9996", "line2": "2 66630  53.1591 208.9823 0000922  95.5601 354.5068 15.69409602  3521"}}, "geometry": {"type": "Point", "coordinates": [51.05763837079278, -28.542918530390324]}}, {"type": "Feature", "properties": {"norad_id": 66631, "name": "STARLINK-35965", "group": "last-30-days", "lat": -29.931800635100878, "lon": 52.56050608406041, "alt_km": 369.93647298886117, "timestamp": "2025-12-08T15:42:48.537731+00:00", "meta": {"OBJECT_NAME": "STARLINK-35965", "OBJECT_ID": "2025-271Q", "EPOCH": "2025-12-08T06:00:02.999808", "MEAN_MOTION": 15.69405953, "ECCENTRICITY": 9.089e-05, "INCLINATION": 53.1595, "RA_OF_ASC_NODE": 208.9786, "ARG_OF_PERICENTER": 82.3228, "MEAN_ANOMALY": 9.6634, "EPHEMERIS_TYPE": 0, "CLASSIFICATION_TYPE": "U", "NORAD_CAT_ID": 66631, "ELEMENT_SET_NO": 999, "REV_AT_EPOCH": 352, "BSTAR": -0.018605033, "MEAN_MOTION_DOT": -0.01966836, "MEAN_MOTION_DDOT": 0}, "tle": {"line1": "1 66631U 25271Q   25342.25003472 -.01966836  00000+0 -18605-1 0  9999", "line2": "2 66631  53.1595 208.9786 0000908  82.3228   9.6634 15.69405953  3529"}}, "geometry": {"type": "Point", "coordinates": [52.56050608406041, -29.931800635100878]}}, {"type": "Feature", "properties": {"norad_id": 66632, "name": "STARLINK-35973", "group": "last-30-days", "lat": -31.30444849618189, "lon": 54.10771387170513, "alt_km": 370.02392420480464, "timestamp": "2025-12-08T15:42:48.537741+00:00", "meta": {"OBJECT_NAME": "STARLINK-35973", "OBJECT_ID": "2025-271R", "EPOCH": "2025-12-08T06:00:02.999808", "MEAN_MOTION": 15.69407167, "ECCENTRICITY": 9.09e-05, "INCLINATION": 53.1593, "RA_OF_ASC_NODE": 208.9747, "ARG_OF_PERICENTER": 84.0826, "MEAN_ANOMALY": 9.8195, "EPHEMERIS_TYPE": 0, "CLASSIFICATION_TYPE": "U", "NORAD_CAT_ID": 66632, "ELEMENT_SET_NO": 999, "REV_AT_EPOCH": 346, "BSTAR": -0.01861757, "MEAN_MOTION_DOT": -0.01968094, "MEAN_MOTION_DDOT": 0}, "tle": {"line1": "1 66632U 25271R   25342.25003472 -.01968094  00000+0 -18618-1 0  9992", "line2": "2 66632  53.1593 208.9747 0000909  84.0826   9.8195 15.69407167  3465"}}, "geometry": {"type": "Point", "coordinates": [54.10771387170513, -31.30444849618189]}}]}